[{"OBJECT_NAME":"ATLAS CENTAUR 2","OBJECT_ID":"1963-047A","EPOCH":"2026-03-21T11:50:43.965888","MEAN_MOTION":14.12109735,"ECCENTRICITY":0.05474302,"INCLINATION":30.3536,"RA_OF_ASC_NODE":129.6725,"ARG_OF_PERICENTER":184.3176,"MEAN_ANOMALY":175.2559,"EPHEMERIS_TYPE":0,"CLASSIFICATION_TYPE":"U","NORAD_CAT_ID":694,"ELEMENT_SET_NO":999,"REV_AT_EPOCH":13329,"BSTAR":0.00022004576,"MEAN_MOTION_DOT":1.909e-5,"MEAN_MOTION_DDOT":0},{"OBJECT_NAME":"THOR AGENA D R/B","OBJECT_ID":"1964-002A","EPOCH":"2026-03-22T06:58:34.532544","MEAN_MOTION":14.34026619,"ECCENTRICITY":0.00322679,"INCLINATION":99.122,"RA_OF_ASC_NODE":95.3149,"ARG_OF_PERICENTER":220.4671,"MEAN_ANOMALY":139.4111,"EPHEMERIS_TYPE":0,"CLASSIFICATION_TYPE":"U","NORAD_CAT_ID":733,"ELEMENT_SET_NO":999,"REV_AT_EPOCH":24010,"BSTAR":7.2818646e-5,"MEAN_MOTION_DOT":1.56e-6,"MEAN_MOTION_DDOT":0},{"OBJECT_NAME":"SL-3 R/B","OBJECT_ID":"1964-053B","EPOCH":"2026-03-22T06:48:35.498880","MEAN_MOTION":14.61376605,"ECCENTRICITY":0.00801942,"INCLINATION":65.0763,"RA_OF_ASC_NODE":294.314,"ARG_OF_PERICENTER":288.2584,"MEAN_ANOMALY":70.9801,"EPHEMERIS_TYPE":0,"CLASSIFICATION_TYPE":"U","NORAD_CAT_ID":877,"ELEMENT_SET_NO":999,"REV_AT_EPOCH":26863,"BSTAR":5.3959659e-5,"MEAN_MOTION_DOT":1.53e-6,"MEAN_MOTION_DDOT":0},{"OBJECT_NAME":"SL-8 R/B","OBJECT_ID":"1967-045B","EPOCH":"2026-03-22T02:24:47.335968","MEAN_MOTION":14.45632553,"ECCENTRICITY":0.00646798,"INCLINATION":74.0124,"RA_OF_ASC_NODE":324.9132,"ARG_OF_PERICENTER":328.3838,"MEAN_ANOMALY":31.344,"EPHEMERIS_TYPE":0,"CLASSIFICATION_TYPE":"U","NORAD_CAT_ID":2802,"ELEMENT_SET_NO":999,"REV_AT_EPOCH":9081,"BSTAR":8.9949852e-5,"MEAN_MOTION_DOT":2.97e-6,"MEAN_MOTION_DDOT":0},{"OBJECT_NAME":"SL-8 R/B","OBJECT_ID":"1968-040B","EPOCH":"2026-03-22T00:30:33.971328","MEAN_MOTION":15.0333333,"ECCENTRICITY":0.00234521,"INCLINATION":74.0292,"RA_OF_ASC_NODE":288.4946,"ARG_OF_PERICENTER":107.4811,"MEAN_ANOMALY":252.8944,"EPHEMERIS_TYPE":0,"CLASSIFICATION_TYPE":"U","NORAD_CAT_ID":3230,"ELEMENT_SET_NO":999,"REV_AT_EPOCH":9186,"BSTAR":0.00023471702,"MEAN_MOTION_DOT":3.164e-5,"MEAN_MOTION_DDOT":0},{"OBJECT_NAME":"OAO 2","OBJECT_ID":"1968-110A","EPOCH":"2026-03-21T23:51:07.470144","MEAN_MOTION":14.47314543,"ECCENTRICITY":0.00061738,"INCLINATION":34.9925,"RA_OF_ASC_NODE":196.5239,"ARG_OF_PERICENTER":294.4719,"MEAN_ANOMALY":65.5328,"EPHEMERIS_TYPE":0,"CLASSIFICATION_TYPE":"U","NORAD_CAT_ID":3597,"ELEMENT_SET_NO":999,"REV_AT_EPOCH":2088,"BSTAR":7.0198922e-5,"MEAN_MOTION_DOT":2.42e-6,"MEAN_MOTION_DDOT":0},{"OBJECT_NAME":"ISIS 1","OBJECT_ID":"1969-009A","EPOCH":"2026-03-22T04:46:05.325600","MEAN_MOTION":11.30417602,"ECCENTRICITY":0.17078687,"INCLINATION":88.452,"RA_OF_ASC_NODE":153.944,"ARG_OF_PERICENTER":63.9285,"MEAN_ANOMALY":312.7362,"EPHEMERIS_TYPE":0,"CLASSIFICATION_TYPE":"U","NORAD_CAT_ID":3669,"ELEMENT_SET_NO":999,"REV_AT_EPOCH":34994,"BSTAR":9.1943094e-5,"MEAN_MOTION_DOT":1.5e-6,"MEAN_MOTION_DDOT":0},{"OBJECT_NAME":"SERT 2","OBJECT_ID":"1970-009A","EPOCH":"2026-03-22T07:15:08.858304","MEAN_MOTION":13.58730929,"ECCENTRICITY":0.00054782,"INCLINATION":99.2776,"RA_OF_ASC_NODE":23.7067,"ARG_OF_PERICENTER":126.0512,"MEAN_ANOMALY":352.8644,"EPHEMERIS_TYPE":0,"CLASSIFICATION_TYPE":"U","NORAD_CAT_ID":4327,"ELEMENT_SET_NO":999,"REV_AT_EPOCH":78160,"BSTAR":6.7215296e-5,"MEAN_MOTION_DOT":8.0e-8,"MEAN_MOTION_DDOT":0},{"OBJECT_NAME":"SL-3 R/B","OBJECT_ID":"1971-028B","EPOCH":"2026-03-22T06:41:43.797696","MEAN_MOTION":15.62206608,"ECCENTRICITY":0.0013806,"INCLINATION":81.2379,"RA_OF_ASC_NODE":36.4685,"ARG_OF_PERICENTER":231.1684,"MEAN_ANOMALY":128.8338,"EPHEMERIS_TYPE":0,"CLASSIFICATION_TYPE":"U","NORAD_CAT_ID":5118,"ELEMENT_SET_NO":999,"REV_AT_EPOCH":99063,"BSTAR":0.00047901587,"MEAN_MOTION_DOT":0.00042472,"MEAN_MOTION_DDOT":0},{"OBJECT_NAME":"ASTEX 1","OBJECT_ID":"1971-089A","EPOCH":"2026-03-22T05:41:57.185088","MEAN_MOTION":14.50782275,"ECCENTRICITY":0.00171612,"INCLINATION":92.7103,"RA_OF_ASC_NODE":155.8159,"ARG_OF_PERICENTER":48.5229,"MEAN_ANOMALY":311.7447,"EPHEMERIS_TYPE":0,"CLASSIFICATION_TYPE":"U","NORAD_CAT_ID":5560,"ELEMENT_SET_NO":999,"REV_AT_EPOCH":86412,"BSTAR":0.00010654504,"MEAN_MOTION_DOT":4.19e-6,"MEAN_MOTION_DDOT":0},{"OBJECT_NAME":"SL-8 R/B","OBJECT_ID":"1971-119B","EPOCH":"2026-03-22T05:59:35.523744","MEAN_MOTION":14.38118524,"ECCENTRICITY":0.05471214,"INCLINATION":73.8862,"RA_OF_ASC_NODE":152.2387,"ARG_OF_PERICENTER":116.222,"MEAN_ANOMALY":249.6237,"EPHEMERIS_TYPE":0,"CLASSIFICATION_TYPE":"U","NORAD_CAT_ID":5730,"ELEMENT_SET_NO":999,"REV_AT_EPOCH":65729,"BSTAR":0.00051801276,"MEAN_MOTION_DOT":9.914e-5,"MEAN_MOTION_DDOT":0},{"OBJECT_NAME":"OAO 3 (COPERNICUS)","OBJECT_ID":"1972-065A","EPOCH":"2026-03-22T03:14:58.274880","MEAN_MOTION":14.6000765,"ECCENTRICITY":0.00073235,"INCLINATION":35.0048,"RA_OF_ASC_NODE":226.4058,"ARG_OF_PERICENTER":263.9043,"MEAN_ANOMALY":269.8241,"EPHEMERIS_TYPE":0,"CLASSIFICATION_TYPE":"U","NORAD_CAT_ID":6153,"ELEMENT_SET_NO":999,"REV_AT_EPOCH":84801,"BSTAR":7.4851477e-5,"MEAN_MOTION_DOT":3.44e-6,"MEAN_MOTION_DDOT":0},{"OBJECT_NAME":"ATLAS CENTAUR R/B","OBJECT_ID":"1972-065B","EPOCH":"2026-03-22T03:00:52.818048","MEAN_MOTION":14.77720538,"ECCENTRICITY":0.00329091,"INCLINATION":35.0005,"RA_OF_ASC_NODE":232.8717,"ARG_OF_PERICENTER":115.1634,"MEAN_ANOMALY":245.2485,"EPHEMERIS_TYPE":0,"CLASSIFICATION_TYPE":"U","NORAD_CAT_ID":6155,"ELEMENT_SET_NO":999,"REV_AT_EPOCH":84310,"BSTAR":0.00017856424,"MEAN_MOTION_DOT":1.288e-5,"MEAN_MOTION_DDOT":0},{"OBJECT_NAME":"SL-8 R/B","OBJECT_ID":"1975-112B","EPOCH":"2026-03-22T05:34:39.245088","MEAN_MOTION":14.38210924,"ECCENTRICITY":0.00144536,"INCLINATION":74.0637,"RA_OF_ASC_NODE":355.8412,"ARG_OF_PERICENTER":83.8163,"MEAN_ANOMALY":276.4638,"EPHEMERIS_TYPE":0,"CLASSIFICATION_TYPE":"U","NORAD_CAT_ID":8459,"ELEMENT_SET_NO":999,"REV_AT_EPOCH":63367,"BSTAR":9.5205651e-5,"MEAN_MOTION_DOT":2.63e-6,"MEAN_MOTION_DDOT":0},{"OBJECT_NAME":"SL-3 R/B","OBJECT_ID":"1977-057B","EPOCH":"2026-03-22T05:07:33.103776","MEAN_MOTION":15.45837299,"ECCENTRICITY":0.00063987,"INCLINATION":97.5791,"RA_OF_ASC_NODE":253.6899,"ARG_OF_PERICENTER":231.6618,"MEAN_ANOMALY":128.4056,"EPHEMERIS_TYPE":0,"CLASSIFICATION_TYPE":"U","NORAD_CAT_ID":10114,"ELEMENT_SET_NO":999,"REV_AT_EPOCH":67026,"BSTAR":0.00030709818,"MEAN_MOTION_DOT":0.00014822,"MEAN_MOTION_DDOT":0},{"OBJECT_NAME":"SEASAT 1","OBJECT_ID":"1978-064A","EPOCH":"2026-03-22T02:02:59.881056","MEAN_MOTION":14.46169918,"ECCENTRICITY":0.00025313,"INCLINATION":108.0085,"RA_OF_ASC_NODE":151.5096,"ARG_OF_PERICENTER":279.9935,"MEAN_ANOMALY":80.0925,"EPHEMERIS_TYPE":0,"CLASSIFICATION_TYPE":"U","NORAD_CAT_ID":10967,"ELEMENT_SET_NO":999,"REV_AT_EPOCH":50830,"BSTAR":0.00010247976,"MEAN_MOTION_DOT":2.29e-6,"MEAN_MOTION_DDOT":0},{"OBJECT_NAME":"SL-14 R/B","OBJECT_ID":"1979-011B","EPOCH":"2026-03-22T06:09:32.555520","MEAN_MOTION":14.91923336,"ECCENTRICITY":0.0016569,"INCLINATION":82.5205,"RA_OF_ASC_NODE":84.6421,"ARG_OF_PERICENTER":21.1682,"MEAN_ANOMALY":339.0219,"EPHEMERIS_TYPE":0,"CLASSIFICATION_TYPE":"U","NORAD_CAT_ID":11267,"ELEMENT_SET_NO":999,"REV_AT_EPOCH":53065,"BSTAR":6.2361488e-5,"MEAN_MOTION_DOT":6.58e-6,"MEAN_MOTION_DDOT":0}]
